{"type": "FeatureCollection", "features": [{"type": "Feature", "properties": {"norad_id": 28054, "name": "DMSP 5D-3 F16 (USA 172)", "group": "weather", "lat": 2.6294374524952357, "lon": -3.4017702369935447, "alt_km": 842.192206369431, "timestamp": "2025-12-05T14:45:14.957263+00:00", "meta": {"OBJECT_NAME": "DMSP 5D-3 F16 (USA 172)", "OBJECT_ID": "2003-048A", "EPOCH": "2025-12-04T17:13:29.939232", "MEAN_MOTION": 14.14419807, "ECCENTRICITY": 0.0006831, "INCLINATION": 99.0051, "RA_OF_ASC_NODE": 356.1114, "ARG_OF_PERICENTER": 345.4042, "MEAN_ANOMALY": 132.1918, "EPHEMERIS_TYPE": 0, "CLASSIFICATION_TYPE": "U", "NORAD_CAT_ID": 28054, "ELEMENT_SET_NO": 999, "REV_AT_EPOCH": 14199, "BSTAR": 0.00016398, "MEAN_MOTION_DOT": 2.68e-06, "MEAN_MOTION_DDOT": 0}, "tle": {"line1": "1 28054U 03048A   25338.71770763  .00000268  00000+0  16398-3 0  9998", "line2": "2 28054  99.0051 356.1114 0006831 345.4042 132.1918 14.14419807141994"}}, "geometry": {"type": "Point", "coordinates": [-3.4017702369935447, 2.6294374524952357]}}, {"type": "Feature", "properties": {"norad_id": 28912, "name": "METEOSAT-9 (MSG-2)", "group": "weather", "lat": -8.594202031596362, "lon": -18.192651702562063, "alt_km": 35790.04999960378, "timestamp": "2025-12-05T14:45:14.957327+00:00", "meta": {"OBJECT_NAME": "METEOSAT-9 (MSG-2)", "OBJECT_ID": "2005-049B", "EPOCH": "2025-12-02T20:50:55.807872", "MEAN_MOTION": 1.00271253, "ECCENTRICITY": 0.00040042, "INCLINATION": 8.9157, "RA_OF_ASC_NODE": 56.0648, "ARG_OF_PERICENTER": 185.08, "MEAN_ANOMALY": 189.154, "EPHEMERIS_TYPE": 0, "CLASSIFICATION_TYPE": "U", "NORAD_CAT_ID": 28912, "ELEMENT_SET_NO": 999, "REV_AT_EPOCH": 503, "BSTAR": 0, "MEAN_MOTION_DOT": 1.39e-06, "MEAN_MOTION_DDOT": 0}, "tle": {"line1": "1 28912U 05049B   25336.86870148  .00000139  00000+0  00000+0 0  9992", "line2": "2 28912   8.9157  56.0648 0004004 185.0800 189.1540  1.00271253  5030"}}, "geometry": {"type": "Point", "coordinates": [-18.192651702562063, -8.594202031596362]}}, {"type": "Feature", "properties": {"norad_id": 29522, "name": "DMSP 5D-3 F17 (USA 191)", "group": "weather", "lat": -67.65834473101351, "lon": 7.131865661091914, "alt_km": 845.0013027047571, "timestamp": "2025-12-05T14:45:14.957348+00:00", "meta": {"OBJECT_NAME": "DMSP 5D-3 F17 (USA 191)", "OBJECT_ID": "2006-050A", "EPOCH": "2025-12-04T15:19:15.690720", "MEAN_MOTION": 14.14914215, "ECCENTRICITY": 0.0009182, "INCLINATION": 98.7393, "RA_OF_ASC_NODE": 344.1961, "ARG_OF_PERICENTER": 250.1146, "MEAN_ANOMALY": 109.9038, "EPHEMERIS_TYPE": 0, "CLASSIFICATION_TYPE": "U", "NORAD_CAT_ID": 29522, "ELEMENT_SET_NO": 999, "REV_AT_EPOCH": 98490, "BSTAR": 0.00019547, "MEAN_MOTION_DOT": 3.34e-06, "MEAN_MOTION_DDOT": 0}, "tle": {"line1": "1 29522U 06050A   25338.63837605  .00000334  00000+0  19547-3 0  9998", "line2": "2 29522  98.7393 344.1961 0009182 250.1146 109.9038 14.14914215984900"}}, "geometry": {"type": "Point", "coordinates": [7.131865661091914, -67.65834473101351]}}, {"type": "Feature", "properties": {"norad_id": 32958, "name": "FENGYUN 3A", "group": "weather", "lat": -65.41388598648429, "lon": 79.81508195556121, "alt_km": 833.76245143094, "timestamp": "2025-12-05T14:45:14.957362+00:00", "meta": {"OBJECT_NAME": "FENGYUN 3A", "OBJECT_ID": "2008-026A", "EPOCH": "2025-12-04T13:54:38.160576", "MEAN_MOTION": 14.19510525, "ECCENTRICITY": 0.0008295, "INCLINATION": 98.6684, "RA_OF_ASC_NODE": 278.2786, "ARG_OF_PERICENTER": 335.6429, "MEAN_ANOMALY": 24.4354, "EPHEMERIS_TYPE": 0, "CLASSIFICATION_TYPE": "U", "NORAD_CAT_ID": 32958, "ELEMENT_SET_NO": 999, "REV_AT_EPOCH": 90779, "BSTAR": 0.00013514, "MEAN_MOTION_DOT": 2.42e-06, "MEAN_MOTION_DDOT": 0}, "tle": {"line1": "1 32958U 08026A   25338.57960834  .00000242  00000+0  13514-3 0  9990", "line2": "2 32958  98.6684 278.2786 0008295 335.6429  24.4354 14.19510525907793"}}, "geometry": {"type": "Point", "coordinates": [79.81508195556121, -65.41388598648429]}}, {"type": "Feature", "properties": {"norad_id": 35491, "name": "GOES 14", "group": "weather", "lat": 1.1369163773746798, "lon": -172.39217160535082, "alt_km": 35774.14565555921, "timestamp": "2025-12-05T14:45:14.957377+00:00", "meta": {"OBJECT_NAME": "GOES 14", "OBJECT_ID": "2009-033A", "EPOCH": "2025-12-04T13:12:37.577088", "MEAN_MOTION": 1.00272692, "ECCENTRICITY": 0.0004194, "INCLINATION": 1.1765, "RA_OF_ASC_NODE": 85.5028, "ARG_OF_PERICENTER": 151.4844, "MEAN_ANOMALY": 286.46, "EPHEMERIS_TYPE": 0, "CLASSIFICATION_TYPE": "U", "NORAD_CAT_ID": 35491, "ELEMENT_SET_NO": 999, "REV_AT_EPOCH": 464, "BSTAR": 0, "MEAN_MOTION_DOT": -5.4e-07, "MEAN_MOTION_DDOT": 0}, "tle": {"line1": "1 35491U 09033A   25338.55043492 -.00000054  00000+0  00000+0 0  9998", "line2": "2 35491   1.1765  85.5028 0004194 151.4844 286.4600  1.00272692  4646"}}, "geometry": {"type": "Point", "coordinates": [-172.39217160535082, 1.1369163773746798]}}, {"type": "Feature", "properties": {"norad_id": 35951, "name": "DMSP 5D-3 F18 (USA 210)", "group": "weather", "lat": 17.728888841474788, "lon": 138.91706914110986, "alt_km": 842.0627074986669, "timestamp": "2025-12-05T14:45:14.957390+00:00", "meta": {"OBJECT_NAME": "DMSP 5D-3 F18 (USA 210)", "OBJECT_ID": "2009-057A", "EPOCH": "2025-12-04T15:55:37.206048", "MEAN_MOTION": 14.1476208, "ECCENTRICITY": 0.0012116, "INCLINATION": 98.8825, "RA_OF_ASC_NODE": 315.1052, "ARG_OF_PERICENTER": 83.7594, "MEAN_ANOMALY": 276.4958, "EPHEMERIS_TYPE": 0, "CLASSIFICATION_TYPE": "U", "NORAD_CAT_ID": 35951, "ELEMENT_SET_NO": 999, "REV_AT_EPOCH": 83208, "BSTAR": 0.00025585, "MEAN_MOTION_DOT": 4.49e-06, "MEAN_MOTION_DDOT": 0}, "tle": {"line1": "1 35951U 09057A   25338.66362507  .00000449  00000+0  25585-3 0  9994", "line2": "2 35951  98.8825 315.1052 0012116  83.7594 276.4958 14.14762080832084"}}, "geometry": {"type": "Point", "coordinates": [138.91706914110986, 17.728888841474788]}}, {"type": "Feature", "properties": {"norad_id": 36411, "name": "EWS-G2 (GOES 15)", "group": "weather", "lat": -0.7822796293022595, "lon": -2.490753846153649, "alt_km": 35791.87092640386, "timestamp": "2025-12-05T14:45:14.957405+00:00", "meta": {"OBJECT_NAME": "EWS-G2 (GOES 15)", "OBJECT_ID": "2010-008A", "EPOCH": "2025-12-04T14:01:10.426080", "MEAN_MOTION": 1.00267939, "ECCENTRICITY": 0.0006012, "INCLINATION": 0.7923, "RA_OF_ASC_NODE": 86.0459, "ARG_OF_PERICENTER": 170.865, "MEAN_ANOMALY": 88.5235, "EPHEMERIS_TYPE": 0, "CLASSIFICATION_TYPE": "U", "NORAD_CAT_ID": 36411, "ELEMENT_SET_NO": 999, "REV_AT_EPOCH": 5768, "BSTAR": 0, "MEAN_MOTION_DOT": 5.2e-07, "MEAN_MOTION_DDOT": 0}, "tle": {"line1": "1 36411U 10008A   25338.58414845  .00000052  00000+0  00000+0 0  9999", "line2": "2 36411   0.7923  86.0459 0006012 170.8650  88.5235  1.00267939 57680"}}, "geometry": {"type": "Point", "coordinates": [-2.490753846153649, -0.7822796293022595]}}, {"type": "Feature", "properties": {"norad_id": 36744, "name": "COMS 1", "group": "weather", "lat": -1.0137446966740349, "lon": 64.170458894638, "alt_km": 35791.4822270165, "timestamp": "2025-12-05T14:45:14.957418+00:00", "meta": {"OBJECT_NAME": "COMS 1", "OBJECT_ID": "2010-032A", "EPOCH": "2025-12-04T14:20:08.606976", "MEAN_MOTION": 1.00269547, "ECCENTRICITY": 0.0001149, "INCLINATION": 4.3203, "RA_OF_ASC_NODE": 78.0882, "ARG_OF_PERICENTER": 188.9827, "MEAN_ANOMALY": 149.7974, "EPHEMERIS_TYPE": 0, "CLASSIFICATION_TYPE": "U", "NORAD_CAT_ID": 36744, "ELEMENT_SET_NO": 999, "REV_AT_EPOCH": 4913, "BSTAR": 0, "MEAN_MOTION_DOT": -3.32e-06, "MEAN_MOTION_DDOT": 0}, "tle": {"line1": "1 36744U 10032A   25338.59732184 -.00000332  00000+0  00000+0 0  9997", "line2": "2 36744   4.3203  78.0882 0001149 188.9827 149.7974  1.00269547 49131"}}, "geometry": {"type": "Point", "coordinates": [64.170458894638, -1.0137446966740349]}}, {"type": "Feature", "properties": {"norad_id": 37214, "name": "FENGYUN 3B", "group": "weather", "lat": 53.013067132883386, "lon": -148.3224123373722, "alt_km": 843.0119864399912, "timestamp": "2025-12-05T14:45:14.957430+00:00", "meta": {"OBJECT_NAME": "FENGYUN 3B", "OBJECT_ID": "2010-059A", "EPOCH": "2025-12-04T18:18:38.891232", "MEAN_MOTION": 14.14786348, "ECCENTRICITY": 0.0022389, "INCLINATION": 98.992, "RA_OF_ASC_NODE": 18.6842, "ARG_OF_PERICENTER": 20.264, "MEAN_ANOMALY": 89.4225, "EPHEMERIS_TYPE": 0, "CLASSIFICATION_TYPE": "U", "NORAD_CAT_ID": 37214, "ELEMENT_SET_NO": 999, "REV_AT_EPOCH": 77993, "BSTAR": 0.00013203, "MEAN_MOTION_DOT": 2.1e-06, "MEAN_MOTION_DDOT": 0}, "tle": {"line1": "1 37214U 10059A   25338.76295013  .00000210  00000+0  13203-3 0  9990", "line2": "2 37214  98.9920  18.6842 0022389  20.2640  89.4225 14.14786348779934"}}, "geometry": {"type": "Point", "coordinates": [-148.3224123373722, 53.013067132883386]}}, {"type": "Feature", "properties": {"norad_id": 37849, "name": "SUOMI NPP", "group": "weather", "lat": -25.433501291757306, "lon": 92.80777552662957, "alt_km": 832.17052781658, "timestamp": "2025-12-05T14:45:14.957442+00:00", "meta": {"OBJECT_NAME": "SUOMI NPP", "OBJECT_ID": "2011-061A", "EPOCH": "2025-12-04T19:10:48.419328", "MEAN_MOTION": 14.19510743, "ECCENTRICITY": 0.0001949, "INCLINATION": 98.7761, "RA_OF_ASC_NODE": 276.2127, "ARG_OF_PERICENTER": 134.4579, "MEAN_ANOMALY": 225.6757, "EPHEMERIS_TYPE": 0, "CLASSIFICATION_TYPE": "U", "NORAD_CAT_ID": 37849, "ELEMENT_SET_NO": 999, "REV_AT_EPOCH": 73086, "BSTAR": 0.00012059, "MEAN_MOTION_DOT": 2.1e-06, "MEAN_MOTION_DDOT": 0}, "tle": {"line1": "1 37849U 11061A   25338.79917152  .00000210  00000+0  12059-3 0  9994", "line2": "2 37849  98.7761 276.2127 0001949 134.4579 225.6757 14.19510743730867"}}, "geometry": {"type": "Point", "coordinates": [92.80777552662957, -25.433501291757306]}}]}